{
"type": "FeatureCollection",
"name": "tilesMetadata",
"crs": { "type": "name", "properties": { "name": "urn:ogc:def:crs:OGC:1.3:CRS84" } },
"features": [
{ "type": "Feature", "properties": { "tileID": "44.09333390325237.9.992528284180977", "tileBBOX": "POLYGON ((9.991728284180978 44.092533903252374, 9.993328284180977 44.092533903252374, 9.993328284180977 44.09413390325237, 9.991728284180978 44.09413390325237, 9.991728284180978 44.092533903252374))", "piazzola": null, "piazzolaBBOXs": null, "sizeEstimated": null, "downloadDate": "2026-03-21T18:52:01.543", "firstCNNconfidence": null, "secondCNNconfidence": null }, "geometry": null },
{ "type": "Feature", "properties": { "tileID": "44.092830853486475.9.993150195349912", "tileBBOX": "POLYGON ((9.992350195349912 44.09203085348648, 9.993950195349912 44.09203085348648, 9.993950195349912 44.093630853486474, 9.992350195349912 44.093630853486474, 9.992350195349912 44.09203085348648))", "piazzola": null, "piazzolaBBOXs": null, "sizeEstimated": null, "downloadDate": "2026-03-21T18:52:01.783", "firstCNNconfidence": null, "secondCNNconfidence": null }, "geometry": null },
{ "type": "Feature", "properties": { "tileID": "44.09232607016167.9.99377072589954", "tileBBOX": "POLYGON ((9.99297072589954 44.09152607016167, 9.994570725899539 44.09152607016167, 9.994570725899539 44.09312607016167, 9.99297072589954 44.09312607016167, 9.99297072589954 44.09152607016167))", "piazzola": null, "piazzolaBBOXs": null, "sizeEstimated": null, "downloadDate": "2026-03-21T18:52:02.052", "firstCNNconfidence": null, "secondCNNconfidence": null }, "geometry": null },
{ "type": "Feature", "properties": { "tileID": "44.09183244807315.9.994395489575775", "tileBBOX": "POLYGON ((9.993595489575775 44.09103244807315, 9.995195489575774 44.09103244807315, 9.995195489575774 44.09263244807315, 9.993595489575775 44.09263244807315, 9.993595489575775 44.09103244807315))", "piazzola": null, "piazzolaBBOXs": null, "sizeEstimated": null, "downloadDate": "2026-03-21T18:52:02.316", "firstCNNconfidence": null, "secondCNNconfidence": null }, "geometry": null },
{ "type": "Feature", "properties": { "tileID": "44.09156791889185.9.995147904218948", "tileBBOX": "POLYGON ((9.994347904218948 44.09076791889185, 9.995947904218948 44.09076791889185, 9.995947904218948 44.092367918891846, 9.994347904218948 44.092367918891846, 9.994347904218948 44.09076791889185))", "piazzola": null, "piazzolaBBOXs": null, "sizeEstimated": null, "downloadDate": "2026-03-21T18:52:02.591", "firstCNNconfidence": null, "secondCNNconfidence": null }, "geometry": null },
{ "type": "Feature", "properties": { "tileID": "44.091332857249775.9.995912579521322", "tileBBOX": "POLYGON ((9.995112579521322 44.09053285724978, 9.996712579521322 44.09053285724978, 9.996712579521322 44.09213285724977, 9.995112579521322 44.09213285724977, 9.995112579521322 44.09053285724978))", "piazzola": null, "piazzolaBBOXs": null, "sizeEstimated": null, "downloadDate": "2026-03-21T18:52:02.806", "firstCNNconfidence": null, "secondCNNconfidence": null }, "geometry": null },
{ "type": "Feature", "properties": { "tileID": "44.09102081186623.9.996647435105578", "tileBBOX": "POLYGON ((9.995847435105578 44.09022081186623, 9.997447435105578 44.09022081186623, 9.997447435105578 44.09182081186623, 9.995847435105578 44.09182081186623, 9.995847435105578 44.09022081186623))", "piazzola": null, "piazzolaBBOXs": null, "sizeEstimated": null, "downloadDate": "2026-03-21T18:52:03.016", "firstCNNconfidence": null, "secondCNNconfidence": null }, "geometry": null },
{ "type": "Feature", "properties": { "tileID": "44.09070104039174.9.997380653061262", "tileBBOX": "POLYGON ((9.996580653061262 44.089901040391744, 9.998180653061262 44.089901040391744, 9.998180653061262 44.09150104039174, 9.996580653061262 44.09150104039174, 9.996580653061262 44.089901040391744))", "piazzola": null, "piazzolaBBOXs": null, "sizeEstimated": null, "downloadDate": "2026-03-21T18:52:03.222", "firstCNNconfidence": null, "secondCNNconfidence": null }, "geometry": null },
{ "type": "Feature", "properties": { "tileID": "44.090345197638186.9.998094359245655", "tileBBOX": "POLYGON ((9.997294359245656 44.08954519763819, 9.998894359245655 44.08954519763819, 9.998894359245655 44.091145197638184, 9.997294359245656 44.091145197638184, 9.997294359245656 44.08954519763819))", "piazzola": null, "piazzolaBBOXs": null, "sizeEstimated": null, "downloadDate": "2026-03-21T18:52:03.422", "firstCNNconfidence": null, "secondCNNconfidence": null }, "geometry": null },
{ "type": "Feature", "properties": { "tileID": "44.090034707930926.9.99883163112231", "tileBBOX": "POLYGON ((9.998031631122311 44.08923470793093, 9.99963163112231 44.08923470793093, 9.99963163112231 44.090834707930924, 9.998031631122311 44.090834707930924, 9.998031631122311 44.08923470793093))", "piazzola": null, "piazzolaBBOXs": null, "sizeEstimated": null, "downloadDate": "2026-03-21T18:52:03.653", "firstCNNconfidence": null, "secondCNNconfidence": null }, "geometry": null },
{ "type": "Feature", "properties": { "tileID": "44.08971834073277.9.999566417760212", "tileBBOX": "POLYGON ((9.998766417760212 44.088918340732775, 10.000366417760212 44.088918340732775, 10.000366417760212 44.09051834073277, 9.998766417760212 44.09051834073277, 9.998766417760212 44.088918340732775))", "piazzola": null, "piazzolaBBOXs": null, "sizeEstimated": null, "downloadDate": "2026-03-21T18:52:03.883", "firstCNNconfidence": null, "secondCNNconfidence": null }, "geometry": null },
{ "type": "Feature", "properties": { "tileID": "44.089365256901786.10.000283774319449", "tileBBOX": "POLYGON ((9.99948377431945 44.08856525690179, 10.001083774319449 44.08856525690179, 10.001083774319449 44.090165256901784, 9.99948377431945 44.090165256901784, 9.99948377431945 44.08856525690179))", "piazzola": null, "piazzolaBBOXs": null, "sizeEstimated": null, "downloadDate": "2026-03-21T18:52:04.065", "firstCNNconfidence": null, "secondCNNconfidence": null }, "geometry": null },
{ "type": "Feature", "properties": { "tileID": "44.08895610482396.10.000970342424585", "tileBBOX": "POLYGON ((10.000170342424585 44.08815610482396, 10.001770342424585 44.08815610482396, 10.001770342424585 44.089756104823955, 10.000170342424585 44.089756104823955, 10.000170342424585 44.08815610482396))", "piazzola": null, "piazzolaBBOXs": null, "sizeEstimated": null, "downloadDate": "2026-03-21T18:52:04.242", "firstCNNconfidence": null, "secondCNNconfidence": null }, "geometry": null },
{ "type": "Feature", "properties": { "tileID": "44.08842094948232.10.001561289697653", "tileBBOX": "POLYGON ((10.000761289697653 44.08762094948232, 10.002361289697653 44.08762094948232, 10.002361289697653 44.08922094948232, 10.000761289697653 44.08922094948232, 10.000761289697653 44.08762094948232))", "piazzola": null, "piazzolaBBOXs": null, "sizeEstimated": null, "downloadDate": "2026-03-21T18:52:04.429", "firstCNNconfidence": null, "secondCNNconfidence": null }, "geometry": null },
{ "type": "Feature", "properties": { "tileID": "44.08779905763268.10.002063339807417", "tileBBOX": "POLYGON ((10.001263339807418 44.08699905763268, 10.002863339807417 44.08699905763268, 10.002863339807417 44.08859905763268, 10.001263339807418 44.08859905763268, 10.001263339807418 44.08699905763268))", "piazzola": null, "piazzolaBBOXs": null, "sizeEstimated": null, "downloadDate": "2026-03-21T18:52:04.613", "firstCNNconfidence": null, "secondCNNconfidence": null }, "geometry": null },
{ "type": "Feature", "properties": { "tileID": "44.08724043667718.10.00263124997771", "tileBBOX": "POLYGON ((10.00183124997771 44.08644043667718, 10.00343124997771 44.08644043667718, 10.00343124997771 44.088040436677176, 10.00183124997771 44.088040436677176, 10.00183124997771 44.08644043667718))", "piazzola": null, "piazzolaBBOXs": null, "sizeEstimated": null, "downloadDate": "2026-03-21T18:52:04.788", "firstCNNconfidence": null, "secondCNNconfidence": null }, "geometry": null },
{ "type": "Feature", "properties": { "tileID": "44.08674163374735.10.003256705562686", "tileBBOX": "POLYGON ((10.002456705562686 44.08594163374735, 10.004056705562686 44.08594163374735, 10.004056705562686 44.08754163374735, 10.002456705562686 44.08754163374735, 10.002456705562686 44.08594163374735))", "piazzola": null, "piazzolaBBOXs": null, "sizeEstimated": null, "downloadDate": "2026-03-21T18:52:04.982", "firstCNNconfidence": null, "secondCNNconfidence": null }, "geometry": null },
{ "type": "Feature", "properties": { "tileID": "44.08630067040841.10.003922728793025", "tileBBOX": "POLYGON ((10.003122728793025 44.085500670408415, 10.004722728793025 44.085500670408415, 10.004722728793025 44.08710067040841, 10.003122728793025 44.08710067040841, 10.003122728793025 44.085500670408415))", "piazzola": null, "piazzolaBBOXs": null, "sizeEstimated": null, "downloadDate": "2026-03-21T18:52:05.170", "firstCNNconfidence": null, "secondCNNconfidence": null }, "geometry": null },
{ "type": "Feature", "properties": { "tileID": "44.08593541118187.10.004634439427532", "tileBBOX": "POLYGON ((10.003834439427532 44.085135411181874, 10.005434439427532 44.085135411181874, 10.005434439427532 44.08673541118187, 10.003834439427532 44.08673541118187, 10.003834439427532 44.085135411181874))", "piazzola": null, "piazzolaBBOXs": null, "sizeEstimated": null, "downloadDate": "2026-03-21T18:52:05.366", "firstCNNconfidence": null, "secondCNNconfidence": null }, "geometry": null },
{ "type": "Feature", "properties": { "tileID": "44.09333390325237.9.992528284180977", "tileBBOX": "POLYGON ((9.991728284180978 44.092533903252374, 9.993328284180977 44.092533903252374, 9.993328284180977 44.09413390325237, 9.991728284180978 44.09413390325237, 9.991728284180978 44.092533903252374))", "piazzola": null, "piazzolaBBOXs": null, "sizeEstimated": null, "downloadDate": "2026-03-21T18:53:41.834", "firstCNNconfidence": null, "secondCNNconfidence": null }, "geometry": null },
{ "type": "Feature", "properties": { "tileID": "44.092830853486475.9.993150195349912", "tileBBOX": "POLYGON ((9.992350195349912 44.09203085348648, 9.993950195349912 44.09203085348648, 9.993950195349912 44.093630853486474, 9.992350195349912 44.093630853486474, 9.992350195349912 44.09203085348648))", "piazzola": null, "piazzolaBBOXs": null, "sizeEstimated": null, "downloadDate": "2026-03-21T18:53:42.073", "firstCNNconfidence": null, "secondCNNconfidence": null }, "geometry": null },
{ "type": "Feature", "properties": { "tileID": "44.09232607016167.9.99377072589954", "tileBBOX": "POLYGON ((9.99297072589954 44.09152607016167, 9.994570725899539 44.09152607016167, 9.994570725899539 44.09312607016167, 9.99297072589954 44.09312607016167, 9.99297072589954 44.09152607016167))", "piazzola": null, "piazzolaBBOXs": null, "sizeEstimated": null, "downloadDate": "2026-03-21T18:53:42.326", "firstCNNconfidence": null, "secondCNNconfidence": null }, "geometry": null },
{ "type": "Feature", "properties": { "tileID": "44.09183244807315.9.994395489575775", "tileBBOX": "POLYGON ((9.993595489575775 44.09103244807315, 9.995195489575774 44.09103244807315, 9.995195489575774 44.09263244807315, 9.993595489575775 44.09263244807315, 9.993595489575775 44.09103244807315))", "piazzola": null, "piazzolaBBOXs": null, "sizeEstimated": null, "downloadDate": "2026-03-21T18:53:42.569", "firstCNNconfidence": null, "secondCNNconfidence": null }, "geometry": null },
{ "type": "Feature", "properties": { "tileID": "44.09156791889185.9.995147904218948", "tileBBOX": "POLYGON ((9.994347904218948 44.09076791889185, 9.995947904218948 44.09076791889185, 9.995947904218948 44.092367918891846, 9.994347904218948 44.092367918891846, 9.994347904218948 44.09076791889185))", "piazzola": null, "piazzolaBBOXs": null, "sizeEstimated": null, "downloadDate": "2026-03-21T18:53:42.804", "firstCNNconfidence": null, "secondCNNconfidence": null }, "geometry": null },
{ "type": "Feature", "properties": { "tileID": "44.091332857249775.9.995912579521322", "tileBBOX": "POLYGON ((9.995112579521322 44.09053285724978, 9.996712579521322 44.09053285724978, 9.996712579521322 44.09213285724977, 9.995112579521322 44.09213285724977, 9.995112579521322 44.09053285724978))", "piazzola": null, "piazzolaBBOXs": null, "sizeEstimated": null, "downloadDate": "2026-03-21T18:53:43.010", "firstCNNconfidence": null, "secondCNNconfidence": null }, "geometry": null },
{ "type": "Feature", "properties": { "tileID": "44.09102081186623.9.996647435105578", "tileBBOX": "POLYGON ((9.995847435105578 44.09022081186623, 9.997447435105578 44.09022081186623, 9.997447435105578 44.09182081186623, 9.995847435105578 44.09182081186623, 9.995847435105578 44.09022081186623))", "piazzola": null, "piazzolaBBOXs": null, "sizeEstimated": null, "downloadDate": "2026-03-21T18:53:43.192", "firstCNNconfidence": null, "secondCNNconfidence": null }, "geometry": null },
{ "type": "Feature", "properties": { "tileID": "44.09070104039174.9.997380653061262", "tileBBOX": "POLYGON ((9.996580653061262 44.089901040391744, 9.998180653061262 44.089901040391744, 9.998180653061262 44.09150104039174, 9.996580653061262 44.09150104039174, 9.996580653061262 44.089901040391744))", "piazzola": null, "piazzolaBBOXs": null, "sizeEstimated": null, "downloadDate": "2026-03-21T18:53:43.393", "firstCNNconfidence": null, "secondCNNconfidence": null }, "geometry": null },
{ "type": "Feature", "properties": { "tileID": "44.090345197638186.9.998094359245655", "tileBBOX": "POLYGON ((9.997294359245656 44.08954519763819, 9.998894359245655 44.08954519763819, 9.998894359245655 44.091145197638184, 9.997294359245656 44.091145197638184, 9.997294359245656 44.08954519763819))", "piazzola": null, "piazzolaBBOXs": null, "sizeEstimated": null, "downloadDate": "2026-03-21T18:53:43.570", "firstCNNconfidence": null, "secondCNNconfidence": null }, "geometry": null },
{ "type": "Feature", "properties": { "tileID": "44.090034707930926.9.99883163112231", "tileBBOX": "POLYGON ((9.998031631122311 44.08923470793093, 9.99963163112231 44.08923470793093, 9.99963163112231 44.090834707930924, 9.998031631122311 44.090834707930924, 9.998031631122311 44.08923470793093))", "piazzola": null, "piazzolaBBOXs": null, "sizeEstimated": null, "downloadDate": "2026-03-21T18:53:43.759", "firstCNNconfidence": null, "secondCNNconfidence": null }, "geometry": null },
{ "type": "Feature", "properties": { "tileID": "44.08971834073277.9.999566417760212", "tileBBOX": "POLYGON ((9.998766417760212 44.088918340732775, 10.000366417760212 44.088918340732775, 10.000366417760212 44.09051834073277, 9.998766417760212 44.09051834073277, 9.998766417760212 44.088918340732775))", "piazzola": null, "piazzolaBBOXs": null, "sizeEstimated": null, "downloadDate": "2026-03-21T18:53:43.959", "firstCNNconfidence": null, "secondCNNconfidence": null }, "geometry": null },
{ "type": "Feature", "properties": { "tileID": "44.089365256901786.10.000283774319449", "tileBBOX": "POLYGON ((9.99948377431945 44.08856525690179, 10.001083774319449 44.08856525690179, 10.001083774319449 44.090165256901784, 9.99948377431945 44.090165256901784, 9.99948377431945 44.08856525690179))", "piazzola": null, "piazzolaBBOXs": null, "sizeEstimated": null, "downloadDate": "2026-03-21T18:53:44.135", "firstCNNconfidence": null, "secondCNNconfidence": null }, "geometry": null },
{ "type": "Feature", "properties": { "tileID": "44.08895610482396.10.000970342424585", "tileBBOX": "POLYGON ((10.000170342424585 44.08815610482396, 10.001770342424585 44.08815610482396, 10.001770342424585 44.089756104823955, 10.000170342424585 44.089756104823955, 10.000170342424585 44.08815610482396))", "piazzola": null, "piazzolaBBOXs": null, "sizeEstimated": null, "downloadDate": "2026-03-21T18:53:44.351", "firstCNNconfidence": null, "secondCNNconfidence": null }, "geometry": null },
{ "type": "Feature", "properties": { "tileID": "44.08842094948232.10.001561289697653", "tileBBOX": "POLYGON ((10.000761289697653 44.08762094948232, 10.002361289697653 44.08762094948232, 10.002361289697653 44.08922094948232, 10.000761289697653 44.08922094948232, 10.000761289697653 44.08762094948232))", "piazzola": null, "piazzolaBBOXs": null, "sizeEstimated": null, "downloadDate": "2026-03-21T18:53:44.538", "firstCNNconfidence": null, "secondCNNconfidence": null }, "geometry": null },
{ "type": "Feature", "properties": { "tileID": "44.08779905763268.10.002063339807417", "tileBBOX": "POLYGON ((10.001263339807418 44.08699905763268, 10.002863339807417 44.08699905763268, 10.002863339807417 44.08859905763268, 10.001263339807418 44.08859905763268, 10.001263339807418 44.08699905763268))", "piazzola": null, "piazzolaBBOXs": null, "sizeEstimated": null, "downloadDate": "2026-03-21T18:53:44.736", "firstCNNconfidence": null, "secondCNNconfidence": null }, "geometry": null },
{ "type": "Feature", "properties": { "tileID": "44.08724043667718.10.00263124997771", "tileBBOX": "POLYGON ((10.00183124997771 44.08644043667718, 10.00343124997771 44.08644043667718, 10.00343124997771 44.088040436677176, 10.00183124997771 44.088040436677176, 10.00183124997771 44.08644043667718))", "piazzola": null, "piazzolaBBOXs": null, "sizeEstimated": null, "downloadDate": "2026-03-21T18:53:44.912", "firstCNNconfidence": null, "secondCNNconfidence": null }, "geometry": null },
{ "type": "Feature", "properties": { "tileID": "44.08674163374735.10.003256705562686", "tileBBOX": "POLYGON ((10.002456705562686 44.08594163374735, 10.004056705562686 44.08594163374735, 10.004056705562686 44.08754163374735, 10.002456705562686 44.08754163374735, 10.002456705562686 44.08594163374735))", "piazzola": null, "piazzolaBBOXs": null, "sizeEstimated": null, "downloadDate": "2026-03-21T18:53:45.092", "firstCNNconfidence": null, "secondCNNconfidence": null }, "geometry": null },
{ "type": "Feature", "properties": { "tileID": "44.08630067040841.10.003922728793025", "tileBBOX": "POLYGON ((10.003122728793025 44.085500670408415, 10.004722728793025 44.085500670408415, 10.004722728793025 44.08710067040841, 10.003122728793025 44.08710067040841, 10.003122728793025 44.085500670408415))", "piazzola": null, "piazzolaBBOXs": null, "sizeEstimated": null, "downloadDate": "2026-03-21T18:53:45.279", "firstCNNconfidence": null, "secondCNNconfidence": null }, "geometry": null },
{ "type": "Feature", "properties": { "tileID": "44.08593541118187.10.004634439427532", "tileBBOX": "POLYGON ((10.003834439427532 44.085135411181874, 10.005434439427532 44.085135411181874, 10.005434439427532 44.08673541118187, 10.003834439427532 44.08673541118187, 10.003834439427532 44.085135411181874))", "piazzola": null, "piazzolaBBOXs": null, "sizeEstimated": null, "downloadDate": "2026-03-21T18:53:45.465", "firstCNNconfidence": null, "secondCNNconfidence": null }, "geometry": null },
{ "type": "Feature", "properties": { "tileID": "44.085533402125876.10.005324983419897", "tileBBOX": "POLYGON ((10.004524983419897 44.08473340212588, 10.006124983419896 44.08473340212588, 10.006124983419896 44.086333402125874, 10.004524983419897 44.086333402125874, 10.004524983419897 44.08473340212588))", "piazzola": null, "piazzolaBBOXs": null, "sizeEstimated": null, "downloadDate": "2026-03-21T18:53:45.743", "firstCNNconfidence": null, "secondCNNconfidence": null }, "geometry": null },
{ "type": "Feature", "properties": { "tileID": "44.08507112581385.10.005977831692729", "tileBBOX": "POLYGON ((10.005177831692729 44.08427112581385, 10.006777831692728 44.08427112581385, 10.006777831692728 44.085871125813846, 10.005177831692729 44.085871125813846, 10.005177831692729 44.08427112581385))", "piazzola": null, "piazzolaBBOXs": null, "sizeEstimated": null, "downloadDate": "2026-03-21T18:53:45.953", "firstCNNconfidence": null, "secondCNNconfidence": null }, "geometry": null },
{ "type": "Feature", "properties": { "tileID": "44.08455657742701.10.006590286861881", "tileBBOX": "POLYGON ((10.005790286861881 44.08375657742701, 10.007390286861881 44.08375657742701, 10.007390286861881 44.08535657742701, 10.005790286861881 44.08535657742701, 10.005790286861881 44.08375657742701))", "piazzola": null, "piazzolaBBOXs": null, "sizeEstimated": null, "downloadDate": "2026-03-21T18:53:46.171", "firstCNNconfidence": null, "secondCNNconfidence": null }, "geometry": null },
{ "type": "Feature", "properties": { "tileID": "44.0839796583491.10.007143971363854", "tileBBOX": "POLYGON ((10.006343971363854 44.0831796583491, 10.007943971363854 44.0831796583491, 10.007943971363854 44.0847796583491, 10.006343971363854 44.0847796583491, 10.006343971363854 44.0831796583491))", "piazzola": null, "piazzolaBBOXs": null, "sizeEstimated": null, "downloadDate": "2026-03-21T18:53:46.359", "firstCNNconfidence": null, "secondCNNconfidence": null }, "geometry": null },
{ "type": "Feature", "properties": { "tileID": "44.08337573956381.10.007668639600833", "tileBBOX": "POLYGON ((10.006868639600834 44.082575739563815, 10.008468639600833 44.082575739563815, 10.008468639600833 44.08417573956381, 10.006868639600834 44.08417573956381, 10.006868639600834 44.082575739563815))", "piazzola": null, "piazzolaBBOXs": null, "sizeEstimated": null, "downloadDate": "2026-03-21T18:53:46.538", "firstCNNconfidence": null, "secondCNNconfidence": null }, "geometry": null },
{ "type": "Feature", "properties": { "tileID": "44.082778554157805.10.008200964305171", "tileBBOX": "POLYGON ((10.007400964305171 44.08197855415781, 10.009000964305171 44.08197855415781, 10.009000964305171 44.0835785541578, 10.007400964305171 44.0835785541578, 10.007400964305171 44.08197855415781))", "piazzola": null, "piazzolaBBOXs": null, "sizeEstimated": null, "downloadDate": "2026-03-21T18:53:46.710", "firstCNNconfidence": null, "secondCNNconfidence": null }, "geometry": null },
{ "type": "Feature", "properties": { "tileID": "44.082177638343495.10.008729060672842", "tileBBOX": "POLYGON ((10.007929060672842 44.0813776383435, 10.009529060672842 44.0813776383435, 10.009529060672842 44.08297763834349, 10.007929060672842 44.08297763834349, 10.007929060672842 44.0813776383435))", "piazzola": null, "piazzolaBBOXs": null, "sizeEstimated": null, "downloadDate": "2026-03-21T18:53:46.898", "firstCNNconfidence": null, "secondCNNconfidence": null }, "geometry": null },
{ "type": "Feature", "properties": { "tileID": "44.08157911463991.10.009259878852921", "tileBBOX": "POLYGON ((10.008459878852921 44.08077911463991, 10.010059878852921 44.08077911463991, 10.010059878852921 44.082379114639906, 10.008459878852921 44.082379114639906, 10.008459878852921 44.08077911463991))", "piazzola": null, "piazzolaBBOXs": null, "sizeEstimated": null, "downloadDate": "2026-03-21T18:53:47.075", "firstCNNconfidence": null, "secondCNNconfidence": null }, "geometry": null },
{ "type": "Feature", "properties": { "tileID": "44.08098115415724.10.009791331831265", "tileBBOX": "POLYGON ((10.008991331831265 44.080181154157245, 10.010591331831264 44.080181154157245, 10.010591331831264 44.08178115415724, 10.008991331831265 44.08178115415724, 10.008991331831265 44.080181154157245))", "piazzola": null, "piazzolaBBOXs": null, "sizeEstimated": null, "downloadDate": "2026-03-21T18:53:47.253", "firstCNNconfidence": null, "secondCNNconfidence": null }, "geometry": null },
{ "type": "Feature", "properties": { "tileID": "44.080375213953246.10.010313262401949", "tileBBOX": "POLYGON ((10.00951326240195 44.07957521395325, 10.011113262401949 44.07957521395325, 10.011113262401949 44.081175213953244, 10.00951326240195 44.081175213953244, 10.00951326240195 44.07957521395325))", "piazzola": null, "piazzolaBBOXs": null, "sizeEstimated": null, "downloadDate": "2026-03-21T18:53:47.434", "firstCNNconfidence": null, "secondCNNconfidence": null }, "geometry": null },
{ "type": "Feature", "properties": { "tileID": "44.07974631535389.10.010807581442984", "tileBBOX": "POLYGON ((10.010007581442984 44.07894631535389, 10.011607581442984 44.07894631535389, 10.011607581442984 44.080546315353885, 10.010007581442984 44.080546315353885, 10.010007581442984 44.07894631535389))", "piazzola": null, "piazzolaBBOXs": null, "sizeEstimated": null, "downloadDate": "2026-03-21T18:53:47.620", "firstCNNconfidence": null, "secondCNNconfidence": null }, "geometry": null },
{ "type": "Feature", "properties": { "tileID": "44.079105852226185.10.011286861567212", "tileBBOX": "POLYGON ((10.010486861567212 44.07830585222619, 10.012086861567212 44.07830585222619, 10.012086861567212 44.07990585222618, 10.010486861567212 44.07990585222618, 10.010486861567212 44.07830585222619))", "piazzola": null, "piazzolaBBOXs": null, "sizeEstimated": null, "downloadDate": "2026-03-21T18:53:47.798", "firstCNNconfidence": null, "secondCNNconfidence": null }, "geometry": null },
{ "type": "Feature", "properties": { "tileID": "44.078477157770386.10.011781576920976", "tileBBOX": "POLYGON ((10.010981576920976 44.07767715777039, 10.012581576920976 44.07767715777039, 10.012581576920976 44.079277157770385, 10.010981576920976 44.079277157770385, 10.010981576920976 44.07767715777039))", "piazzola": null, "piazzolaBBOXs": null, "sizeEstimated": null, "downloadDate": "2026-03-21T18:53:47.974", "firstCNNconfidence": null, "secondCNNconfidence": null }, "geometry": null },
{ "type": "Feature", "properties": { "tileID": "44.07782952704173.10.012250729024032", "tileBBOX": "POLYGON ((10.011450729024032 44.07702952704173, 10.013050729024032 44.07702952704173, 10.013050729024032 44.07862952704173, 10.011450729024032 44.07862952704173, 10.011450729024032 44.07702952704173))", "piazzola": null, "piazzolaBBOXs": null, "sizeEstimated": null, "downloadDate": "2026-03-21T18:53:48.161", "firstCNNconfidence": null, "secondCNNconfidence": null }, "geometry": null },
{ "type": "Feature", "properties": { "tileID": "44.07717308842842.10.01270799081661", "tileBBOX": "POLYGON ((10.01190799081661 44.07637308842842, 10.01350799081661 44.07637308842842, 10.01350799081661 44.077973088428415, 10.01190799081661 44.077973088428415, 10.01190799081661 44.07637308842842))", "piazzola": null, "piazzolaBBOXs": null, "sizeEstimated": null, "downloadDate": "2026-03-21T18:53:48.343", "firstCNNconfidence": null, "secondCNNconfidence": null }, "geometry": null },
{ "type": "Feature", "properties": { "tileID": "44.07664893857082.10.013298406377794", "tileBBOX": "POLYGON ((10.012498406377794 44.07584893857082, 10.014098406377794 44.07584893857082, 10.014098406377794 44.07744893857082, 10.012498406377794 44.07744893857082, 10.012498406377794 44.07584893857082))", "piazzola": null, "piazzolaBBOXs": null, "sizeEstimated": null, "downloadDate": "2026-03-21T18:53:48.535", "firstCNNconfidence": null, "secondCNNconfidence": null }, "geometry": null },
{ "type": "Feature", "properties": { "tileID": "44.07619476899229.10.013956963998812", "tileBBOX": "POLYGON ((10.013156963998812 44.07539476899229, 10.014756963998812 44.07539476899229, 10.014756963998812 44.076994768992286, 10.013156963998812 44.076994768992286, 10.013156963998812 44.07539476899229))", "piazzola": null, "piazzolaBBOXs": null, "sizeEstimated": null, "downloadDate": "2026-03-21T18:53:48.716", "firstCNNconfidence": null, "secondCNNconfidence": null }, "geometry": null }
]
}
